[{"OBJECT_NAME":"HAWK-2C","OBJECT_ID":"2021-006CT","EPOCH":"2026-03-09T16:13:22.454976","MEAN_MOTION":15.33286436,"ECCENTRICITY":0.0006943,"INCLINATION":97.2417,"RA_OF_ASC_NODE":114.9961,"ARG_OF_PERICENTER":184.0877,"MEAN_ANOMALY":176.031,"EPHEMERIS_TYPE":0,"CLASSIFICATION_TYPE":"U","NORAD_CAT_ID":47502,"ELEMENT_SET_NO":999,"REV_AT_EPOCH":28424,"BSTAR":0.00025492914,"MEAN_MOTION_DOT":8.129e-5,"MEAN_MOTION_DDOT":0},{"OBJECT_NAME":"STARLINK-35091","OBJECT_ID":"2025-210U","EPOCH":"2026-03-09T22:48:44.945280","MEAN_MOTION":15.30212641,"ECCENTRICITY":0.00013612,"INCLINATION":53.1582,"RA_OF_ASC_NODE":305.6845,"ARG_OF_PERICENTER":110.4147,"MEAN_ANOMALY":249.7,"EPHEMERIS_TYPE":0,"CLASSIFICATION_TYPE":"U","NORAD_CAT_ID":65640,"ELEMENT_SET_NO":999,"REV_AT_EPOCH":2777,"BSTAR":0.00057092608,"MEAN_MOTION_DOT":0.00016594,"MEAN_MOTION_DDOT":0}]
